[{"OBJECT_NAME":"S-NET B","OBJECT_ID":"2018-014H","EPOCH":"2026-03-09T22:45:17.995680","MEAN_MOTION":15.15604995,"ECCENTRICITY":0.0009334,"INCLINATION":97.5436,"RA_OF_ASC_NODE":334.3767,"ARG_OF_PERICENTER":8.7272,"MEAN_ANOMALY":351.4121,"EPHEMERIS_TYPE":0,"CLASSIFICATION_TYPE":"U","NORAD_CAT_ID":43187,"ELEMENT_SET_NO":999,"REV_AT_EPOCH":44372,"BSTAR":0.00040571081,"MEAN_MOTION_DOT":7.649e-5,"MEAN_MOTION_DDOT":0},{"OBJECT_NAME":"PEGASUS DEB","OBJECT_ID":"1994-029ACN","EPOCH":"2026-03-09T14:54:52.276896","MEAN_MOTION":14.88956192,"ECCENTRICITY":0.0150975,"INCLINATION":81.572,"RA_OF_ASC_NODE":286.6806,"ARG_OF_PERICENTER":308.5515,"MEAN_ANOMALY":50.2248,"EPHEMERIS_TYPE":0,"CLASSIFICATION_TYPE":"U","NORAD_CAT_ID":24980,"ELEMENT_SET_NO":999,"REV_AT_EPOCH":53329,"BSTAR":0.0016647,"MEAN_MOTION_DOT":0.00019427,"MEAN_MOTION_DDOT":0}]
